{"type": "FeatureCollection", "features": [ {"type": "Feature", "properties": {"norad_id": 37295, "name": "COSMOS 2251 DEB", "group": "cosmos-2251-debris", "lat": 39.5749339295686, "lon": 60.24582202111088, "alt_km": 661.6617799809928, "timestamp": "2025-12-27T02:10:16.586596+00:00", "meta": {"OBJECT_NAME": "COSMOS 2251 DEB", "OBJECT_ID": "1993-036BJK", "EPOCH": "2025-12-25T16:46:30.932832", "MEAN_MOTION": 14.65312772, "ECCENTRICITY": 0.00441488, "INCLINATION": 74.006, "RA_OF_ASC_NODE": 256.6411, "ARG_OF_PERICENTER": 71.87, "MEAN_ANOMALY": 288.7269, "EPHEMERIS_TYPE": 0, "CLASSIFICATION_TYPE": "U", "NORAD_CAT_ID": 37295, "ELEMENT_SET_NO": 999, "REV_AT_EPOCH": 82494, "BSTAR": 0.00055089823, "MEAN_MOTION_DOT": 2.985e-05, "MEAN_MOTION_DDOT": 0}, "tle": {"line1": "1 37295U 93036BJK 25359.69896913  .00002985  00000+0  55090-3 0  9997", "line2": "2 37295  74.0060 256.6411 0044148  71.8700 288.7269 14.65312772824941"}}, "geometry": {"type": "Point", "coordinates": [60.24582202111088, 39.5749339295686]}}, {"type": "Feature", "properties": {"norad_id": 37305, "name": "COSMOS 2251 DEB", "group": "cosmos-2251-debris", "lat": -35.48902614593915, "lon": 95.80578069990976, "alt_km": 741.7105931913375, "timestamp": "2025-12-27T02:10:16.586607+00:00", "meta": {"OBJECT_NAME": "COSMOS 2251 DEB", "OBJECT_ID": "1993-036BJV", "EPOCH": "2025-12-23T00:11:55.974336", "MEAN_MOTION": 14.36169187, "ECCENTRICITY": 0.00495961, "INCLINATION": 73.8701, "RA_OF_ASC_NODE": 271.4675, "ARG_OF_PERICENTER": 230.2466, "MEAN_ANOMALY": 129.4312, "EPHEMERIS_TYPE": 0, "CLASSIFICATION_TYPE": "U", "NORAD_CAT_ID": 37305, "ELEMENT_SET_NO": 999, "REV_AT_EPOCH": 67014, "BSTAR": 0.00056579218, "MEAN_MOTION_DOT": 1.645e-05, "MEAN_MOTION_DDOT": 0}, "tle": {"line1": "1 37305U 93036BJV 25357.00828674  .00001645  00000+0  56579-3 0  9996", "line2": "2 37305  73.8701 271.4675 0049596 230.2466 129.4312 14.36169187670140"}}, "geometry": {"type": "Point", "coordinates": [95.80578069990976, -35.48902614593915]}}, {"type": "Feature", "properties": {"norad_id": 37312, "name": "COSMOS 2251 DEB", "group": "cosmos-2251-debris", "lat": 51.84507532508856, "lon": -161.2304571373026, "alt_km": 742.3820015660904, "timestamp": "2025-12-27T02:10:16.586617+00:00", "meta": {"OBJECT_NAME": "COSMOS 2251 DEB", "OBJECT_ID": "1993-036BKC", "EPOCH": "2025-12-26T04:20:06.486432", "MEAN_MOTION": 14.46165995, "ECCENTRICITY": 0.00184518, "INCLINATION": 74.0294, "RA_OF_ASC_NODE": 179.0901, "ARG_OF_PERICENTER": 281.316, "MEAN_ANOMALY": 78.5925, "EPHEMERIS_TYPE": 0, "CLASSIFICATION_TYPE": "U", "NORAD_CAT_ID": 37312, "ELEMENT_SET_NO": 999, "REV_AT_EPOCH": 86358, "BSTAR": 0.00042518339, "MEAN_MOTION_DOT": 1.496e-05, "MEAN_MOTION_DDOT": 0}, "tle": {"line1": "1 37312U 93036BKC 25360.18063063  .00001496  00000+0  42518-3 0  9992", "line2": "2 37312  74.0294 179.0901 0018451 281.3160  78.5925 14.46165995863587"}}, "geometry": {"type": "Point", "coordinates": [-161.2304571373026, 51.84507532508856]}}, {"type": "Feature", "properties": {"norad_id": 37316, "name": "COSMOS 2251 DEB", "group": "cosmos-2251-debris", "lat": -59.61024599578656, "lon": -158.6392892413481, "alt_km": 609.2133502800425, "timestamp": "2025-12-27T02:10:16.586627+00:00", "meta": {"OBJECT_NAME": "COSMOS 2251 DEB", "OBJECT_ID": "1993-036BKG", "EPOCH": "2025-12-26T17:03:21.302208", "MEAN_MOTION": 14.95099635, "ECCENTRICITY": 0.0029677, "INCLINATION": 74.0192, "RA_OF_ASC_NODE": 352.8746, "ARG_OF_PERICENTER": 56.1094, "MEAN_ANOMALY": 304.2907, "EPHEMERIS_TYPE": 0, "CLASSIFICATION_TYPE": "U", "NORAD_CAT_ID": 37316, "ELEMENT_SET_NO": 999, "REV_AT_EPOCH": 86352, "BSTAR": 0.0023915, "MEAN_MOTION_DOT": 0.00026514, "MEAN_MOTION_DDOT": 0}, "tle": {"line1": "1 37316U 93036BKG 25360.71066322  .00026514  00000+0  23915-2 0  9993", "line2": "2 37316  74.0192 352.8746 0029677  56.1094 304.2907 14.95099635863526"}}, "geometry": {"type": "Point", "coordinates": [-158.6392892413481, -59.61024599578656]}}, {"type": "Feature", "properties": {"norad_id": 37320, "name": "COSMOS 2251 DEB", "group": "cosmos-2251-debris", "lat": -72.86413652686373, "lon": 121.8521039758198, "alt_km": 606.7737519685206, "timestamp": "2025-12-27T02:10:16.586637+00:00", "meta": {"OBJECT_NAME": "COSMOS 2251 DEB", "OBJECT_ID": "1993-036BKL", "EPOCH": "2025-12-22T20:16:00.405696", "MEAN_MOTION": 14.78886663, "ECCENTRICITY": 0.0046926, "INCLINATION": 74.0442, "RA_OF_ASC_NODE": 198.3073, "ARG_OF_PERICENTER": 283.335, "MEAN_ANOMALY": 76.2596, "EPHEMERIS_TYPE": 0, "CLASSIFICATION_TYPE": "U", "NORAD_CAT_ID": 37320, "ELEMENT_SET_NO": 999, "REV_AT_EPOCH": 66296, "BSTAR": 0.000787018, "MEAN_MOTION_DOT": 5.877e-05, "MEAN_MOTION_DDOT": 0}, "tle": {"line1": "1 37320U 93036BKL 25356.84444914  .00005877  00000+0  78702-3 0  9998", "line2": "2 37320  74.0442 198.3073 0046926 283.3350  76.2596 14.78886663662961"}}, "geometry": {"type": "Point", "coordinates": [121.8521039758198, -72.86413652686373]}}, {"type": "Feature", "properties": {"norad_id": 37326, "name": "COSMOS 2251 DEB", "group": "cosmos-2251-debris", "lat": -46.10205256109559, "lon": -70.09307332824783, "alt_km": 713.960809098593, "timestamp": "2025-12-27T02:10:16.586647+00:00", "meta": {"OBJECT_NAME": "COSMOS 2251 DEB", "OBJECT_ID": "1993-036BKS", "EPOCH": "2025-12-18T14:41:59.918784", "MEAN_MOTION": 14.6160351, "ECCENTRICITY": 0.00547059, "INCLINATION": 74.0257, "RA_OF_ASC_NODE": 323.4491, "ARG_OF_PERICENTER": 90.7075, "MEAN_ANOMALY": 270.0361, "EPHEMERIS_TYPE": 0, "CLASSIFICATION_TYPE": "U", "NORAD_CAT_ID": 37326, "ELEMENT_SET_NO": 999, "REV_AT_EPOCH": 85569, "BSTAR": 0.00040097011, "MEAN_MOTION_DOT": 2.005e-05, "MEAN_MOTION_DDOT": 0}, "tle": {"line1": "1 37326U 93036BKS 25352.61249906  .00002005  00000+0  40097-3 0  9995", "line2": "2 37326  74.0257 323.4491 0054705  90.7075 270.0361 14.61603510855692"}}, "geometry": {"type": "Point", "coordinates": [-70.09307332824783, -46.10205256109559]}}, {"type": "Feature", "properties": {"norad_id": 37330, "name": "COSMOS 2251 DEB", "group": "cosmos-2251-debris", "lat": -22.750186275745335, "lon": 94.59626649395655, "alt_km": 700.3796808213028, "timestamp": "2025-12-27T02:10:16.586657+00:00", "meta": {"OBJECT_NAME": "COSMOS 2251 DEB", "OBJECT_ID": "1993-036BKW", "EPOCH": "2025-12-24T00:52:02.666208", "MEAN_MOTION": 14.59569552, "ECCENTRICITY": 0.00567424, "INCLINATION": 74.0177, "RA_OF_ASC_NODE": 273.5222, "ARG_OF_PERICENTER": 118.7622, "MEAN_ANOMALY": 241.926, "EPHEMERIS_TYPE": 0, "CLASSIFICATION_TYPE": "U", "NORAD_CAT_ID": 37330, "ELEMENT_SET_NO": 999, "REV_AT_EPOCH": 86533, "BSTAR": 0.00027721204, "MEAN_MOTION_DOT": 1.317e-05, "MEAN_MOTION_DDOT": 0}, "tle": {"line1": "1 37330U 93036BKW 25358.03614197  .00001317  00000+0  27721-3 0  9994", "line2": "2 37330  74.0177 273.5222 0056742 118.7622 241.9260 14.59569552865338"}}, "geometry": {"type": "Point", "coordinates": [94.59626649395655, -22.750186275745335]}}, {"type": "Feature", "properties": {"norad_id": 37331, "name": "COSMOS 2251 DEB", "group": "cosmos-2251-debris", "lat": 37.631486069125664, "lon": -151.09152541154003, "alt_km": 770.8252806528781, "timestamp": "2025-12-27T02:10:16.586667+00:00", "meta": {"OBJECT_NAME": "COSMOS 2251 DEB", "OBJECT_ID": "1993-036BKX", "EPOCH": "2025-12-24T11:37:12.375264", "MEAN_MOTION": 14.35050755, "ECCENTRICITY": 0.00553191, "INCLINATION": 74.0736, "RA_OF_ASC_NODE": 46.3907, "ARG_OF_PERICENTER": 56.9806, "MEAN_ANOMALY": 303.6644, "EPHEMERIS_TYPE": 0, "CLASSIFICATION_TYPE": "U", "NORAD_CAT_ID": 37331, "ELEMENT_SET_NO": 999, "REV_AT_EPOCH": 84928, "BSTAR": 0.00040764009, "MEAN_MOTION_DOT": 1.157e-05, "MEAN_MOTION_DDOT": 0}, "tle": {"line1": "1 37331U 93036BKX 25358.48417101  .00001157  00000+0  40764-3 0  9994", "line2": "2 37331  74.0736  46.3907 0055319  56.9806 303.6644 14.35050755849284"}}, "geometry": {"type": "Point", "coordinates": [-151.09152541154003, 37.631486069125664]}}, {"type": "Feature", "properties": {"norad_id": 37336, "name": "COSMOS 2251 DEB", "group": "cosmos-2251-debris", "lat": 2.4877605247341257, "lon": -54.266486011495466, "alt_km": 764.829779141246, "timestamp": "2025-12-27T02:10:16.586677+00:00", "meta": {"OBJECT_NAME": "COSMOS 2251 DEB", "OBJECT_ID": "1993-036BLC", "EPOCH": "2025-12-17T07:33:13.175712", "MEAN_MOTION": 14.32760586, "ECCENTRICITY": 0.00290162, "INCLINATION": 74.0414, "RA_OF_ASC_NODE": 322.8603, "ARG_OF_PERICENTER": 39.1846, "MEAN_ANOMALY": 321.1399, "EPHEMERIS_TYPE": 0, "CLASSIFICATION_TYPE": "U", "NORAD_CAT_ID": 37336, "ELEMENT_SET_NO": 999, "REV_AT_EPOCH": 65185, "BSTAR": 6.9199726e-05, "MEAN_MOTION_DOT": 1.63e-06, "MEAN_MOTION_DDOT": 0}, "tle": {"line1": "1 37336U 93036BLC 25351.31473583  .00000163  00000+0  69200-4 0  9993", "line2": "2 37336  74.0414 322.8603 0029016  39.1846 321.1399 14.32760586651852"}}, "geometry": {"type": "Point", "coordinates": [-54.266486011495466, 2.4877605247341257]}}, {"type": "Feature", "properties": {"norad_id": 37340, "name": "COSMOS 2251 DEB", "group": "cosmos-2251-debris", "lat": 70.35696733746045, "lon": -55.87001258533564, "alt_km": 762.7679302629385, "timestamp": "2025-12-27T02:10:16.586688+00:00", "meta": {"OBJECT_NAME": "COSMOS 2251 DEB", "OBJECT_ID": "1993-036BLG", "EPOCH": "2025-12-26T00:44:42.186048", "MEAN_MOTION": 14.36937733, "ECCENTRICITY": 0.00183659, "INCLINATION": 74.025, "RA_OF_ASC_NODE": 252.703, "ARG_OF_PERICENTER": 344.8671, "MEAN_ANOMALY": 15.193, "EPHEMERIS_TYPE": 0, "CLASSIFICATION_TYPE": "U", "NORAD_CAT_ID": 37340, "ELEMENT_SET_NO": 999, "REV_AT_EPOCH": 84258, "BSTAR": 0.00016722421, "MEAN_MOTION_DOT": 4.7e-06, "MEAN_MOTION_DDOT": 0}, "tle": {"line1": "1 37340U 93036BLG 25360.03104382  .00000470  00000+0  16722-3 0  9996", "line2": "2 37340  74.0250 252.7030 0018365 344.8671  15.1930 14.36937733842584"}}, "geometry": {"type": "Point", "coordinates": [-55.87001258533564, 70.35696733746045]}}]}